{
  "type": "FeatureCollection",
  "features": [
    {
      "type": "Feature",
      "properties": {
        "norad_id": 66934,
        "name": "STARLINK-36153",
        "group": "last-30-days",
        "lat": -5.405118293583267,
        "lon": -155.268714345728,
        "alt_km": 325.30173879896665,
        "timestamp": "2025-12-18T15:47:09.961812+00:00",
        "meta_object_name": "STARLINK-36153",
        "meta_object_id": "2025-286K",
        "meta_epoch": "2025-12-18T06:00:02.999808",
        "meta_mean_motion": 15.83656659,
        "meta_eccentricity": 6.131e-05,
        "meta_inclination": 53.1562,
        "meta_ra_of_asc_node": 22.7135,
        "meta_arg_of_pericenter": 85.6115,
        "meta_mean_anomaly": 296.1172,
        "meta_ephemeris_type": 0,
        "meta_classification_type": "U",
        "meta_norad_cat_id": 66934,
        "meta_element_set_no": 999,
        "meta_rev_at_epoch": 287,
        "meta_bstar": -0.0069415766,
        "meta_mean_motion_dot": -0.0136549,
        "meta_mean_motion_ddot": 0,
        "tle_line1": "1 66934U 25286K   25352.25003472 -.01365490  00000+0 -69416-2 0  9998",
        "tle_line2": "2 66934  53.1562  22.7135 0000613  85.6115 296.1172 15.83656659  2877"
      },
      "geometry": {
        "type": "Point",
        "coordinates": [
          -155.268714345728,
          -5.405118293583267
        ]
      }
    },
    {
      "type": "Feature",
      "properties": {
        "norad_id": 66935,
        "name": "STARLINK-36127",
        "group": "last-30-days",
        "lat": -7.351807948762858,
        "lon": -153.79022628742982,
        "alt_km": 325.59816602543924,
        "timestamp": "2025-12-18T15:47:09.961826+00:00",
        "meta_object_name": "STARLINK-36127",
        "meta_object_id": "2025-286L",
        "meta_epoch": "2025-12-18T06:00:02.999808",
        "meta_mean_motion": 15.83656131,
        "meta_eccentricity": 7.748e-05,
        "meta_inclination": 53.1562,
        "meta_ra_of_asc_node": 22.7086,
        "meta_arg_of_pericenter": 88.0193,
        "meta_mean_anomaly": 296.1629,
        "meta_ephemeris_type": 0,
        "meta_classification_type": "U",
        "meta_norad_cat_id": 66935,
        "meta_element_set_no": 999,
        "meta_rev_at_epoch": 287,
        "meta_bstar": -0.0070386515,
        "meta_mean_motion_dot": -0.01382178,
        "meta_mean_motion_ddot": 0,
        "tle_line1": "1 66935U 25286L   25352.25003472 -.01382178  00000+0 -70387-2 0  9990",
        "tle_line2": "2 66935  53.1562  22.7086 0000774  88.0193 296.1629 15.83656131  2876"
      },
      "geometry": {
        "type": "Point",
        "coordinates": [
          -153.79022628742982,
          -7.351807948762858
        ]
      }
    },
    {
      "type": "Feature",
      "properties": {
        "norad_id": 66936,
        "name": "STARLINK-36160",
        "group": "last-30-days",
        "lat": -9.0334991623937,
        "lon": -152.49950974849506,
        "alt_km": 325.8048022804214,
        "timestamp": "2025-12-18T15:47:09.961836+00:00",
        "meta_object_name": "STARLINK-36160",
        "meta_object_id": "2025-286M",
        "meta_epoch": "2025-12-18T06:00:02.999808",
        "meta_mean_motion": 15.83662731,
        "meta_eccentricity": 7.162e-05,
        "meta_inclination": 53.1562,
        "meta_ra_of_asc_node": 22.7045,
        "meta_arg_of_pericenter": 86.8974,
        "meta_mean_anomaly": 299.3919,
        "meta_ephemeris_type": 0,
        "meta_classification_type": "U",
        "meta_norad_cat_id": 66936,
        "meta_element_set_no": 999,
        "meta_rev_at_epoch": 287,
        "meta_bstar": -0.0070460123,
        "meta_mean_motion_dot": -0.01383778,
        "meta_mean_motion_ddot": 0,
        "tle_line1": "1 66936U 25286M   25352.25003472 -.01383778  00000+0 -70460-2 0  9990",
        "tle_line2": "2 66936  53.1562  22.7045 0000716  86.8974 299.3919 15.83662731  2871"
      },
      "geometry": {
        "type": "Point",
        "coordinates": [
          -152.49950974849506,
          -9.0334991623937
        ]
      }
    },
    {
      "type": "Feature",
      "properties": {
        "norad_id": 66937,
        "name": "STARLINK-36165",
        "group": "last-30-days",
        "lat": -10.738315444875157,
        "lon": -151.17569912769116,
        "alt_km": 326.0769252742257,
        "timestamp": "2025-12-18T15:47:09.961846+00:00",
        "meta_object_name": "STARLINK-36165",
        "meta_object_id": "2025-286N",
        "meta_epoch": "2025-12-18T06:00:02.999808",
        "meta_mean_motion": 15.83670813,
        "meta_eccentricity": 8.083e-05,
        "meta_inclination": 53.1561,
        "meta_ra_of_asc_node": 22.6996,
        "meta_arg_of_pericenter": 82.6392,
        "meta_mean_anomaly": 305.792,
        "meta_ephemeris_type": 0,
        "meta_classification_type": "U",
        "meta_norad_cat_id": 66937,
        "meta_element_set_no": 999,
        "meta_rev_at_epoch": 287,
        "meta_bstar": -0.0070776934,
        "meta_mean_motion_dot": -0.01389716,
        "meta_mean_motion_ddot": 0,
        "tle_line1": "1 66937U 25286N   25352.25003472 -.01389716  00000+0 -70777-2 0  9990",
        "tle_line2": "2 66937  53.1561  22.6996 0000808  82.6392 305.7920 15.83670813  2879"
      },
      "geometry": {
        "type": "Point",
        "coordinates": [
          -151.17569912769116,
          -10.738315444875157
        ]
      }
    },
    {
      "type": "Feature",
      "properties": {
        "norad_id": 66938,
        "name": "STARLINK-36155",
        "group": "last-30-days",
        "lat": -12.441955493081265,
        "lon": -149.83291846228693,
        "alt_km": 326.37035677533913,
        "timestamp": "2025-12-18T15:47:09.961856+00:00",
        "meta_object_name": "STARLINK-36155",
        "meta_object_id": "2025-286P",
        "meta_epoch": "2025-12-18T06:00:02.999808",
        "meta_mean_motion": 15.83684166,
        "meta_eccentricity": 8.185e-05,
        "meta_inclination": 53.156,
        "meta_ra_of_asc_node": 22.695,
        "meta_arg_of_pericenter": 73.9762,
        "meta_mean_anomaly": 316.6003,
        "meta_ephemeris_type": 0,
        "meta_classification_type": "U",
        "meta_norad_cat_id": 66938,
        "meta_element_set_no": 999,
        "meta_rev_at_epoch": 287,
        "meta_bstar": -0.007135126,
        "meta_mean_motion_dot": -0.01428192,
        "meta_mean_motion_ddot": 0,
        "tle_line1": "1 66938U 25286P   25352.25003472 -.01428192  00000+0 -71351-2 0  9992",
        "tle_line2": "2 66938  53.1560  22.6950 0000818  73.9762 316.6003 15.83684166  2873"
      },
      "geometry": {
        "type": "Point",
        "coordinates": [
          -149.83291846228693,
          -12.441955493081265
        ]
      }
    },
    {
      "type": "Feature",
      "properties": {
        "norad_id": 66939,
        "name": "STARLINK-36154",
        "group": "last-30-days",
        "lat": -16.031368632025195,
        "lon": -146.92263981404014,
        "alt_km": 326.7090383158393,
        "timestamp": "2025-12-18T15:47:09.961866+00:00",
        "meta_object_name": "STARLINK-36154",
        "meta_object_id": "2025-286Q",
        "meta_epoch": "2025-12-18T06:00:02.999808",
        "meta_mean_motion": 15.83679799,
        "meta_eccentricity": 8.085e-05,
        "meta_inclination": 53.1558,
        "meta_ra_of_asc_node": 22.6855,
        "meta_arg_of_pericenter": 83.6243,
        "meta_mean_anomaly": 311.5373,
        "meta_ephemeris_type": 0,
        "meta_classification_type": "U",
        "meta_norad_cat_id": 66939,
        "meta_element_set_no": 999,
        "meta_rev_at_epoch": 287,
        "meta_bstar": -0.0071889573,
        "meta_mean_motion_dot": -0.01437485,
        "meta_mean_motion_ddot": 0,
        "tle_line1": "1 66939U 25286Q   25352.25003472 -.01437485  00000+0 -71890-2 0  9996",
        "tle_line2": "2 66939  53.1558  22.6855 0000808  83.6243 311.5373 15.83679799  2876"
      },
      "geometry": {
        "type": "Point",
        "coordinates": [
          -146.92263981404014,
          -16.031368632025195
        ]
      }
    },
    {
      "type": "Feature",
      "properties": {
        "norad_id": 66940,
        "name": "STARLINK-36121",
        "group": "last-30-days",
        "lat": -17.66239018234833,
        "lon": -145.55601814532304,
        "alt_km": 326.8073366395174,
        "timestamp": "2025-12-18T15:47:09.961878+00:00",
        "meta_object_name": "STARLINK-36121",
        "meta_object_id": "2025-286R",
        "meta_epoch": "2025-12-18T06:00:02.999808",
        "meta_mean_motion": 15.83687783,
        "meta_eccentricity": 7.147e-05,
        "meta_inclination": 53.1556,
        "meta_ra_of_asc_node": 22.6809,
        "meta_arg_of_pericenter": 86.7591,
        "meta_mean_anomaly": 310.4879,
        "meta_ephemeris_type": 0,
        "meta_classification_type": "U",
        "meta_norad_cat_id": 66940,
        "meta_element_set_no": 999,
        "meta_rev_at_epoch": 287,
        "meta_bstar": -0.0071997093,
        "meta_mean_motion_dot": -0.01439825,
        "meta_mean_motion_ddot": 0,
        "tle_line1": "1 66940U 25286R   25352.25003472 -.01439825  00000+0 -71997-2 0  9996",
        "tle_line2": "2 66940  53.1556  22.6809 0000714  86.7591 310.4879 15.83687783  2872"
      },
      "geometry": {
        "type": "Point",
        "coordinates": [
          -145.55601814532304,
          -17.66239018234833
        ]
      }
    }
  ]
}